{
  "norad_id": 58541,
  "name": "STARLINK-31045",
  "history": [
    {
      "epoch": "2026-03-28T07:17:43.913472Z",
      "apogee_km": 476.1439092553528,
      "perigee_km": 474.3236539757554,
      "latitude_deg": 7.130465611391709e-06,
      "longitude_deg": 117.96047998522208,
      "height_km": 476.12820534463657,
      "semi_major_axis_km": 6853.370781615554,
      "eccentricity": 0.0001328,
      "inclination_deg": 53.1614,
      "raan_deg": 53.1198,
      "arg_perigee_deg": 89.7659,
      "mean_anomaly_deg": 270.3494,
      "mean_motion_rev_day": 15.30193733
    },
    {
      "epoch": "2026-03-29T03:40:25.458816Z",
      "apogee_km": 476.19698182261163,
      "perigee_km": 474.2711845482363,
      "latitude_deg": 4.580725504081205e-05,
      "longitude_deg": 167.50619978124823,
      "height_km": 476.1927060543305,
      "semi_major_axis_km": 6853.371083185423,
      "eccentricity": 0.0001405,
      "inclination_deg": 53.1612,
      "raan_deg": 49.1755,
      "arg_perigee_deg": 93.609,
      "mean_anomaly_deg": 266.5072,
      "mean_motion_rev_day": 15.30193632
    },
    {
      "epoch": "2026-03-30T04:45:18.540000Z",
      "apogee_km": 476.127746879547,
      "perigee_km": 474.49799650005934,
      "latitude_deg": 8.090967645572679e-06,
      "longitude_deg": 145.40594377504297,
      "height_km": 475.8285065035952,
      "semi_major_axis_km": 6853.449871689803,
      "eccentricity": 0.0001189,
      "inclination_deg": 53.162,
      "raan_deg": 44.3265,
      "arg_perigee_deg": 61.9692,
      "mean_anomaly_deg": 298.1429,
      "mean_motion_rev_day": 15.30167245
    },
    {
      "epoch": "2026-03-30T04:45:18.540864Z",
      "apogee_km": 476.1276783450485,
      "perigee_km": 474.49806503455875,
      "latitude_deg": 8.904875816138933e-06,
      "longitude_deg": 145.4059407715361,
      "height_km": 475.8285387106057,
      "semi_major_axis_km": 6853.449871689803,
      "eccentricity": 0.00011889,
      "inclination_deg": 53.162,
      "raan_deg": 44.3265,
      "arg_perigee_deg": 61.9692,
      "mean_anomaly_deg": 298.1429,
      "mean_motion_rev_day": 15.30167245
    },
    {
      "epoch": "2026-03-30T14:09:38.039040Z",
      "apogee_km": 476.21922855319553,
      "perigee_km": 474.4119731023575,
      "latitude_deg": 3.120162214622808e-05,
      "longitude_deg": 2.1155487172639593,
      "height_km": 476.1650963804374,
      "semi_major_axis_km": 6853.452600827776,
      "eccentricity": 0.00013185,
      "inclination_deg": 53.164,
      "raan_deg": 42.5036,
      "arg_perigee_deg": 86.8961,
      "mean_anomaly_deg": 273.2191,
      "mean_motion_rev_day": 15.30166331
    },
    {
      "epoch": "2026-03-30T20:25:50.859840Z",
      "apogee_km": 476.0239887266853,
      "perigee_km": 474.5716088241297,
      "latitude_deg": 1.401874433189532e-05,
      "longitude_deg": -93.40949289523456,
      "height_km": 476.2549553648538,
      "semi_major_axis_km": 6853.434798775407,
      "eccentricity": 0.00010596,
      "inclination_deg": 53.1655,
      "raan_deg": 41.2895,
      "arg_perigee_deg": 94.598,
      "mean_anomaly_deg": 265.5142,
      "mean_motion_rev_day": 15.30172293
    },
    {
      "epoch": "2026-03-31T19:56:36.062880Z",
      "apogee_km": 475.7049537739849,
      "perigee_km": 474.6892896571471,
      "latitude_deg": 2.8057919184638478e-05,
      "longitude_deg": -91.61675347770584,
      "height_km": 476.3579037700878,
      "semi_major_axis_km": 6853.334121715566,
      "eccentricity": 7.41e-05,
      "inclination_deg": 53.1646,
      "raan_deg": 36.7362,
      "arg_perigee_deg": 120.9768,
      "mean_anomaly_deg": 239.1306,
      "mean_motion_rev_day": 15.30206011
    },
    {
      "epoch": "2026-04-01T05:20:56.475168Z",
      "apogee_km": 476.27294185280607,
      "perigee_km": 474.2772282536398,
      "latitude_deg": -4.441304377608525e-05,
      "longitude_deg": 125.09426470271468,
      "height_km": 476.15294944659075,
      "semi_major_axis_km": 6853.412085053223,
      "eccentricity": 0.0001456,
      "inclination_deg": 53.1626,
      "raan_deg": 34.9186,
      "arg_perigee_deg": 88.8382,
      "mean_anomaly_deg": 271.2785,
      "mean_motion_rev_day": 15.301799
    },
    {
      "epoch": "2026-04-02T12:41:59.574336Z",
      "apogee_km": 475.8737905558037,
      "perigee_km": 474.5347847350231,
      "latitude_deg": -4.07247461794876e-05,
      "longitude_deg": 7.4749214727753435,
      "height_km": 476.48780527645863,
      "semi_major_axis_km": 6853.341287645413,
      "eccentricity": 9.769e-05,
      "inclination_deg": 53.1631,
      "raan_deg": 28.8497,
      "arg_perigee_deg": 125.049,
      "mean_anomaly_deg": 235.0602,
      "mean_motion_rev_day": 15.30203611
    },
    {
      "epoch": "2026-04-03T04:22:30.916128Z",
      "apogee_km": 475.9581865697828,
      "perigee_km": 474.4352387521549,
      "latitude_deg": -1.7703480532994404e-05,
      "longitude_deg": 128.6672834545534,
      "height_km": 476.2255988222312,
      "semi_major_axis_km": 6853.333712660969,
      "eccentricity": 0.00011111,
      "inclination_deg": 53.1616,
      "raan_deg": 25.8164,
      "arg_perigee_deg": 99.8602,
      "mean_anomaly_deg": 260.2524,
      "mean_motion_rev_day": 15.30206148
    },
    {
      "epoch": "2026-04-04T19:33:50.865120Z",
      "apogee_km": 475.60856952932863,
      "perigee_km": 474.70941709500585,
      "latitude_deg": 3.9673287147927334e-05,
      "longitude_deg": -108.3579253287748,
      "height_km": 476.3458715674127,
      "semi_major_axis_km": 6853.2959933121665,
      "eccentricity": 6.56e-05,
      "inclination_deg": 53.1584,
      "raan_deg": 18.2337,
      "arg_perigee_deg": 129.8316,
      "mean_anomaly_deg": 230.2743,
      "mean_motion_rev_day": 15.30218781
    },
    {
      "epoch": "2026-04-05T11:14:24.699552Z",
      "apogee_km": 475.9860966564738,
      "perigee_km": 474.61636849131173,
      "latitude_deg": 1.6944759770300722e-05,
      "longitude_deg": 12.825486802271845,
      "height_km": 476.6458214574137,
      "semi_major_axis_km": 6853.4382325738925,
      "eccentricity": 9.993e-05,
      "inclination_deg": 53.1616,
      "raan_deg": 15.2019,
      "arg_perigee_deg": 130.5988,
      "mean_anomaly_deg": 229.51,
      "mean_motion_rev_day": 15.30171143
    },
    {
      "epoch": "2026-04-06T01:20:53.099232Z",
      "apogee_km": 476.04069819313463,
      "perigee_km": 474.37519830381007,
      "latitude_deg": 1.7191775733244468e-05,
      "longitude_deg": 157.89926348979077,
      "height_km": 476.52934664218986,
      "semi_major_axis_km": 6853.344948248472,
      "eccentricity": 0.00012151,
      "inclination_deg": 53.1608,
      "raan_deg": 12.4734,
      "arg_perigee_deg": 120.5233,
      "mean_anomaly_deg": 239.5888,
      "mean_motion_rev_day": 15.30202385
    },
    {
      "epoch": "2026-04-07T03:59:46.754304Z",
      "apogee_km": 475.85944598832157,
      "perigee_km": 474.5349706192237,
      "latitude_deg": 3.129975319354201e-05,
      "longitude_deg": 111.92060414292354,
      "height_km": 476.17916674365443,
      "semi_major_axis_km": 6853.334208303772,
      "eccentricity": 9.663e-05,
      "inclination_deg": 53.1613,
      "raan_deg": 7.3127,
      "arg_perigee_deg": 97.2285,
      "mean_anomaly_deg": 262.8826,
      "mean_motion_rev_day": 15.30205982
    },
    {
      "epoch": "2026-04-08T03:30:35.142048Z",
      "apogee_km": 475.84275549753966,
      "perigee_km": 474.5896883944397,
      "latitude_deg": 3.856302978424679e-05,
      "longitude_deg": 113.70082834668679,
      "height_km": 475.96724956346276,
      "semi_major_axis_km": 6853.353221945989,
      "eccentricity": 9.142e-05,
      "inclination_deg": 53.163,
      "raan_deg": 2.7602,
      "arg_perigee_deg": 76.3477,
      "mean_anomaly_deg": 283.7626,
      "mean_motion_rev_day": 15.30199614
    },
    {
      "epoch": "2026-04-08T23:53:16.174176Z",
      "apogee_km": 475.90591898782804,
      "perigee_km": 474.54264836128004,
      "latitude_deg": -5.057883252942164e-05,
      "longitude_deg": 163.2509947472508,
      "height_km": 476.1531351527216,
      "semi_major_axis_km": 6853.361283674554,
      "eccentricity": 9.946e-05,
      "inclination_deg": 53.163,
      "raan_deg": 358.8183,
      "arg_perigee_deg": 92.5288,
      "mean_anomaly_deg": 267.5826,
      "mean_motion_rev_day": 15.30196914
    },
    {
      "epoch": "2026-04-10T10:22:26.510592Z",
      "apogee_km": 476.0389661604977,
      "perigee_km": 474.4119779096354,
      "latitude_deg": -9.66988770417795e-06,
      "longitude_deg": -2.131845226901878,
      "height_km": 475.99865402096736,
      "semi_major_axis_km": 6853.362472035066,
      "eccentricity": 0.0001187,
      "inclination_deg": 53.1629,
      "raan_deg": 352.1448,
      "arg_perigee_deg": 81.1368,
      "mean_anomaly_deg": 278.9767,
      "mean_motion_rev_day": 15.30196516
    },
    {
      "epoch": "2026-04-11T16:09:27.516096Z",
      "apogee_km": 476.0242305472766,
      "perigee_km": 474.4506957705362,
      "latitude_deg": -2.0766547249433026e-05,
      "longitude_deg": -95.87311500370778,
      "height_km": 475.8663553494072,
      "semi_major_axis_km": 6853.374463158906,
      "eccentricity": 0.0001148,
      "inclination_deg": 53.1623,
      "raan_deg": 346.3809,
      "arg_perigee_deg": 69.9531,
      "mean_anomaly_deg": 290.1593,
      "mean_motion_rev_day": 15.301925
    },
    {
      "epoch": "2026-04-12T23:30:31.115520Z",
      "apogee_km": 475.9826061852882,
      "perigee_km": 474.3867417002939,
      "latitude_deg": -4.570940329561636e-06,
      "longitude_deg": 146.5040586407322,
      "height_km": 475.7796679746494,
      "semi_major_axis_km": 6853.321673942791,
      "eccentricity": 0.00011643,
      "inclination_deg": 53.1617,
      "raan_deg": 340.3106,
      "arg_perigee_deg": 67.6413,
      "mean_anomaly_deg": 292.4711,
      "mean_motion_rev_day": 15.3021018
    }
  ]
}